{
  "type": "FeatureCollection",
  "features": [
    {
      "type": "Feature",
      "properties": {
        "norad_id": 43823,
        "name": "GEO-KOMPSAT-2A",
        "group": "weather",
        "lat": -0.010558622895584818,
        "lon": -87.04995558351008,
        "alt_km": 35788.06457393417,
        "timestamp": "2025-12-20T03:42:47.035656+00:00",
        "meta_object_name": "GEO-KOMPSAT-2A",
        "meta_object_id": "2018-100A",
        "meta_epoch": "2025-12-19T15:35:04.232256",
        "meta_mean_motion": 1.00271282,
        "meta_eccentricity": 4.19e-05,
        "meta_inclination": 0.0523,
        "meta_ra_of_asc_node": 150.9174,
        "meta_arg_of_pericenter": 308.3469,
        "meta_mean_anomaly": 351.2698,
        "meta_ephemeris_type": 0,
        "meta_classification_type": "U",
        "meta_norad_cat_id": 43823,
        "meta_element_set_no": 999,
        "meta_rev_at_epoch": 2583,
        "meta_bstar": 0,
        "meta_mean_motion_dot": -3.19e-06,
        "meta_mean_motion_ddot": 0,
        "tle_line1": "1 43823U 18100A   25353.64935454 -.00000319  00000+0  00000+0 0  9990",
        "tle_line2": "2 43823   0.0523 150.9174 0000419 308.3469 351.2698  1.00271282 25831"
      },
      "geometry": {
        "type": "Point",
        "coordinates": [
          -87.04995558351008,
          -0.010558622895584818
        ]
      }
    },
    {
      "type": "Feature",
      "properties": {
        "norad_id": 44387,
        "name": "METEOR-M2 2",
        "group": "weather",
        "lat": -33.2139491528628,
        "lon": 148.08774866985735,
        "alt_km": 816.7785034176295,
        "timestamp": "2025-12-20T03:42:47.035668+00:00",
        "meta_object_name": "METEOR-M2 2",
        "meta_object_id": "2019-038A",
        "meta_epoch": "2025-12-19T21:39:20.054880",
        "meta_mean_motion": 14.2429413,
        "meta_eccentricity": 0.0001588,
        "meta_inclination": 98.897,
        "meta_ra_of_asc_node": 333.7188,
        "meta_arg_of_pericenter": 133.5734,
        "meta_mean_anomaly": 226.5576,
        "meta_ephemeris_type": 0,
        "meta_classification_type": "U",
        "meta_norad_cat_id": 44387,
        "meta_element_set_no": 999,
        "meta_rev_at_epoch": 33577,
        "meta_bstar": -1.34e-05,
        "meta_mean_motion_dot": -7.7e-07,
        "meta_mean_motion_ddot": 0,
        "tle_line1": "1 44387U 19038A   25353.90231545 -.00000077  00000+0 -13400-4 0  9991",
        "tle_line2": "2 44387  98.8970 333.7188 0001588 133.5734 226.5576 14.24294130335778"
      },
      "geometry": {
        "type": "Point",
        "coordinates": [
          148.08774866985735,
          -33.2139491528628
        ]
      }
    },
    {
      "type": "Feature",
      "properties": {
        "norad_id": 47719,
        "name": "ARKTIKA-M 1",
        "group": "weather",
        "lat": 53.82946368125193,
        "lon": 126.75308244057176,
        "alt_km": 30801.511027706965,
        "timestamp": "2025-12-20T03:42:47.035681+00:00",
        "meta_object_name": "ARKTIKA-M 1",
        "meta_object_id": "2021-016A",
        "meta_epoch": "2025-12-19T01:20:05.580096",
        "meta_mean_motion": 2.00630571,
        "meta_eccentricity": 0.7207407,
        "meta_inclination": 63.1758,
        "meta_ra_of_asc_node": 83.1314,
        "meta_arg_of_pericenter": 269.1504,
        "meta_mean_anomaly": 15.5629,
        "meta_ephemeris_type": 0,
        "meta_classification_type": "U",
        "meta_norad_cat_id": 47719,
        "meta_element_set_no": 999,
        "meta_rev_at_epoch": 3517,
        "meta_bstar": 0,
        "meta_mean_motion_dot": -1.23e-06,
        "meta_mean_motion_ddot": 0,
        "tle_line1": "1 47719U 21016A   25353.05562014 -.00000123  00000+0  00000+0 0  9994",
        "tle_line2": "2 47719  63.1758  83.1314 7207407 269.1504  15.5629  2.00630571 35172"
      },
      "geometry": {
        "type": "Point",
        "coordinates": [
          126.75308244057176,
          53.82946368125193
        ]
      }
    },
    {
      "type": "Feature",
      "properties": {
        "norad_id": 49008,
        "name": "FENGYUN 3E",
        "group": "weather",
        "lat": 54.088174836297135,
        "lon": -17.686085911952986,
        "alt_km": 821.0840217726845,
        "timestamp": "2025-12-20T03:42:47.035700+00:00",
        "meta_object_name": "FENGYUN 3E",
        "meta_object_id": "2021-062A",
        "meta_epoch": "2025-12-19T20:41:23.356032",
        "meta_mean_motion": 14.19880008,
        "meta_eccentricity": 7.11e-05,
        "meta_inclination": 98.7468,
        "meta_ra_of_asc_node": 354.2989,
        "meta_arg_of_pericenter": 213.3862,
        "meta_mean_anomaly": 146.727,
        "meta_ephemeris_type": 0,
        "meta_classification_type": "U",
        "meta_norad_cat_id": 49008,
        "meta_element_set_no": 999,
        "meta_rev_at_epoch": 23113,
        "meta_bstar": -3.4916e-05,
        "meta_mean_motion_dot": -1.18e-06,
        "meta_mean_motion_ddot": 0,
        "tle_line1": "1 49008U 21062A   25353.86207588 -.00000118  00000+0 -34916-4 0  9992",
        "tle_line2": "2 49008  98.7468 354.2989 0000711 213.3862 146.7270 14.19880008231135"
      },
      "geometry": {
        "type": "Point",
        "coordinates": [
          -17.686085911952986,
          54.088174836297135
        ]
      }
    },
    {
      "type": "Feature",
      "properties": {
        "norad_id": 51850,
        "name": "GOES 18",
        "group": "weather",
        "lat": -0.0004517341164458869,
        "lon": 7.727954505804018,
        "alt_km": 35784.03203838674,
        "timestamp": "2025-12-20T03:42:47.035712+00:00",
        "meta_object_name": "GOES 18",
        "meta_object_id": "2022-021A",
        "meta_epoch": "2025-12-19T13:06:13.924800",
        "meta_mean_motion": 1.00280535,
        "meta_eccentricity": 0.0001032,
        "meta_inclination": 0.0096,
        "meta_ra_of_asc_node": 238.6381,
        "meta_arg_of_pericenter": 33.0454,
        "meta_mean_anomaly": 236.2852,
        "meta_ephemeris_type": 0,
        "meta_classification_type": "U",
        "meta_norad_cat_id": 51850,
        "meta_element_set_no": 999,
        "meta_rev_at_epoch": 479,
        "meta_bstar": 0,
        "meta_mean_motion_dot": 1.2e-06,
        "meta_mean_motion_ddot": 0,
        "tle_line1": "1 51850U 22021A   25353.54599450  .00000120  00000+0  00000+0 0  9996",
        "tle_line2": "2 51850   0.0096 238.6381 0001032  33.0454 236.2852  1.00280535  4794"
      },
      "geometry": {
        "type": "Point",
        "coordinates": [
          7.727954505804018,
          -0.0004517341164458869
        ]
      }
    },
    {
      "type": "Feature",
      "properties": {
        "norad_id": 54234,
        "name": "NOAA 21 (JPSS-2)",
        "group": "weather",
        "lat": 51.13611520670567,
        "lon": -80.64354467543257,
        "alt_km": 820.9874499514963,
        "timestamp": "2025-12-20T03:42:47.035724+00:00",
        "meta_object_name": "NOAA 21 (JPSS-2)",
        "meta_object_id": "2022-150A",
        "meta_epoch": "2025-12-19T19:00:39.053952",
        "meta_mean_motion": 14.19525995,
        "meta_eccentricity": 0.0001915,
        "meta_inclination": 98.7471,
        "meta_ra_of_asc_node": 290.0126,
        "meta_arg_of_pericenter": 24.0229,
        "meta_mean_anomaly": 336.1036,
        "meta_ephemeris_type": 0,
        "meta_classification_type": "U",
        "meta_norad_cat_id": 54234,
        "meta_element_set_no": 999,
        "meta_rev_at_epoch": 16109,
        "meta_bstar": 4.1691e-05,
        "meta_mean_motion_dot": 4.4e-07,
        "meta_mean_motion_ddot": 0,
        "tle_line1": "1 54234U 22150A   25353.79211868  .00000044  00000+0  41691-4 0  9990",
        "tle_line2": "2 54234  98.7471 290.0126 0001915  24.0229 336.1036 14.19525995161090"
      },
      "geometry": {
        "type": "Point",
        "coordinates": [
          -80.64354467543257,
          51.13611520670567
        ]
      }
    },
    {
      "type": "Feature",
      "properties": {
        "norad_id": 54743,
        "name": "METEOSAT-12 (MTG-I1)",
        "group": "weather",
        "lat": 0.6172173357445357,
        "lon": 144.36055561811304,
        "alt_km": 35789.4609431635,
        "timestamp": "2025-12-20T03:42:47.035736+00:00",
        "meta_object_name": "METEOSAT-12 (MTG-I1)",
        "meta_object_id": "2022-170C",
        "meta_epoch": "2025-12-19T06:24:51.136128",
        "meta_mean_motion": 1.00270426,
        "meta_eccentricity": 0.0001481,
        "meta_inclination": 0.6935,
        "meta_ra_of_asc_node": 24.6802,
        "meta_arg_of_pericenter": 239.4026,
        "meta_mean_anomaly": 279.9464,
        "meta_ephemeris_type": 0,
        "meta_classification_type": "U",
        "meta_norad_cat_id": 54743,
        "meta_element_set_no": 999,
        "meta_rev_at_epoch": 1117,
        "meta_bstar": 0,
        "meta_mean_motion_dot": 1.7e-07,
        "meta_mean_motion_ddot": 0,
        "tle_line1": "1 54743U 22170C   25353.26725852  .00000017  00000+0  00000+0 0  9996",
        "tle_line2": "2 54743   0.6935  24.6802 0001481 239.4026 279.9464  1.00270426 11173"
      },
      "geometry": {
        "type": "Point",
        "coordinates": [
          144.36055561811304,
          0.6172173357445357
        ]
      }
    }
  ]
}